K16L49A 27.5   0.15 K1972 251.11028   28.62669  260.81252    9.14557  0.0502510  0.89388264   1.0672899  4 MPO386986    50   1    3 days 0.45 M-v 3Eh MPCALB     2804          2016 LA49          20160616
K16L49G 22.4   0.15 K1972 261.67786   75.02413   86.97128   25.51643  0.3803502  0.83189934   1.1196670  5 MPO392480   154   1   10 days 0.51 M-v 3Eh MPCALB     2803          2016 LG49          20160623
K16L49H 18.8   0.15 K1972 287.16503   11.10117  307.14653    8.96808  0.4787016  0.28157356   2.3053744  1 MPO394309    84   2 2002-2016 0.32 M-v 38h MPCADO     0804          2016 LH49          20161220
K16L49J 22.2   0.15 K1972  75.30725  235.14208  231.91398   10.44596  0.6105956  0.94793815   1.0263198  3 MPO457100    82   3 2016-2018 0.37 M-v 3Eh MPCLINUX   0803          2016 LJ49          20180601
K16L49K 26.0   0.15 K1972  18.51600  260.46056   85.50121   32.88254  0.3767136  0.70195388   1.2539022  5 MPO386986    58   1    2 days 0.64 M-v 3Eh MPCW       2803          2016 LK49          20160616
K16L49M 21.3   0.15 K1972 114.31543  324.03280   65.09719   42.70220  0.3562898  0.83674415   1.1153408  8 MPO438024    17   1    9 days 0.64 M-v 3Eh MPCLINUX   2803          2016 LM49          20160615
K16L51F 18.7   0.15 K1972 251.35598  245.52141   53.72034    7.72075  0.5052833  0.23146364   2.6271258  1 MPO425203    92   3 2003-2016 0.33 M-v 38h MPCLINUX   0804          2016 LF51          20160925
K16L51R 27.4   0.15 K1972 185.56007  271.23375  253.74978    6.34421  0.3761834  0.76475046   1.1842850  8 MPO384631    18   1    5 days 0.36 M-v 3Eh MPCW       2803          2016 LR51          20160613
K16L51V 25.3   0.15 K1972 285.67944   75.02161  258.68927   11.81915  0.3582813  0.61237111   1.3733870  7 MPO384631    38   1    4 days 0.51 M-v 3Eh MPCW       2803          2016 LV51          20160619
K16L68S 22.2   0.15 K1972 309.68124   71.91667  238.14261    6.80332  0.4563566  0.29462574   2.2367748  3 MPO466826    21   1   60 days 0.25 M-v 38h MPCW       2804          2016 LS68          20160806
K16M00A 27.5   0.15 K1972 225.05973  223.34223   92.20407    5.05952  0.3751572  0.54734118   1.4801213  6 MPO384632    72   1    3 days 0.57 M-v 3Eh MPCW       2803          2016 MA            20160619
K16M00B 19.5   0.15 K1972 327.70674  353.78417  267.41995   10.17410  0.4376019  0.28675280   2.2775309  1 MPO466826   126   3 2009-2019 0.32 M-v 38h MPCLINUX   0804          2016 MB            20190128
K16M00H 22.0   0.15 K1972  49.63583  203.83038  242.12935   14.67536  0.2064611  0.85704670   1.0976563  6 MPO384633    35   1   19 days 0.33 M-v 3Eh MPCALB     2803          2016 MH            20160712
K16M00J 21.6   0.15 K1972 103.04794  115.94762   93.00165   40.38234  0.4905875  0.40314422   1.8148013  5 MPO438024    62   1   21 days 0.44 M-v 3Eh MPCLINUX   2803          2016 MJ            20160710
K16M00K 23.1   0.15 K1972 327.55686  204.97576  108.05113    9.12933  0.5225334  0.30785426   2.1722307  2 MPO435117   102   1   97 days 0.37 M-v 3Eh MPCLINUX   2804          2016 MK            20161001
K16M00O 24.8   0.15 K1972 107.27250   47.83209  267.80715    2.50941  0.4352122  0.43904726   1.7144647  7 MPO384633    30   1    8 days 0.45 M-v 3Eh MPCADO     2803          2016 MO            20160706
K16M00S 23.9   0.15 K1972 281.41037  136.44115  138.44670    1.76388  0.5553091  0.25636935   2.4540985  4 MPO409567    63   1  116 days 0.36 M-v 3Eh MPCLINUX   2804          2016 MS            20160827
K16M01B 19.8   0.15 K1972 312.57870  185.86504  259.60833   53.29927  0.4932095  0.77644310   1.1723653  7 MPO384634    19   1   11 days 0.26 M-v 3Eh MPCALB     2803          2016 MB1           20160709
K16M01C 23.1   0.15 K1972 219.02376   80.84158  270.54166    4.12417  0.4510268  0.55810955   1.4610208  8 MPO384634    11   1    7 days 0.16 M-v 3Eh MPCALB     2803          2016 MC1           20160706
K16M01F 20.7   0.15 K1972 302.33620  166.83070  143.01047    7.17143  0.4420760  0.28343720   2.2952578  3 MPO392480   173   1  118 days 0.35 M-v 38h MPCALB     2804          2016 MF1           20161025
K16M01H 18.6   0.15 K1972 265.18316  281.35561   87.43260   12.54415  0.6176444  0.28460405   2.2889800  3 MPO399570    31   2 2016-2017 0.30 M-h 3Eh MPCLINUX   0803          2016 MH1           20170225
K16N00A 26.9   0.15 K1972 206.17924  217.91517   99.94359    2.91869  0.3618259  0.53254243   1.5074164  5 MPO384638    60   1    1 days 0.82 M-v 3Eh MPCW       2803          2016 NA            20160702
K16N00F 18.2   0.15 K1972 233.63914   96.93222  269.48314    5.96887  0.5477131  0.25156127   2.4852697  1 MPO435576    50   3 2016-2018 0.23 M-v 38h MPCW       1804          2016 NF            20180210
K16N00G 23.9   0.15 K1972 118.31709   41.27725  276.22314   15.73834  0.3979423  0.45120433   1.6835288  7 MPO384639    53   1   10 days 0.39 M-v 3Eh MPCADO     2804          2016 NG            20160713
K16N00R 23.9   0.15 K1972 336.56537  247.22910  249.57140    6.51209  0.3354921  1.18830036   0.8827788  7 MPO384639    44   1   26 days 0.38 M-v 3Eh MPCALB     2802          2016 NR            20160729
K16N00S 25.4   0.15 K1972 282.73943  204.37081  114.00868    5.27817  0.2587901  0.60768588   1.3804371  5 MPO384640    77   1   29 days 0.33 M-v 3Eh MPCW       2804          2016 NS            20160802
K16N00V 19.8   0.15 K1972 300.75293  145.14502  255.17090   16.29275  0.2366344  0.69197631   1.2659267  1 E2019-M61   260   2 2016-2019 0.33 M-v 3Eh MPCLINUX   8803          2016 NV            20190621
K16N00X 19.4   0.15 K1972 170.31119  205.58432  101.87344   11.12763  0.6223673  0.16018496   3.3578005  3 MPO397877   131   1  145 days 0.31 M-v 38h MPCALB     2804          2016 NX            20161125
K16N00Y 20.6   0.15 K1972 225.28419  180.13189  127.57343   25.14276  0.5480472  0.21448558   2.7639954  3 MPO392480    81   1  118 days 0.33 M-v 38h MPCALB     2804          2016 NY            20161030
K16N01A 22.1   0.15 K1972 276.57320   66.98436  289.54242    3.38451  0.5724788  0.27001340   2.3707140  4 MPO438025   209   1  170 days 0.34 M-v 3Eh MPCLINUX   2804          2016 NA1           20161221
K16N01B 23.9   0.15 K1972 332.70290    0.73897  112.88617    6.67286  0.4355045  1.48085474   0.7623032  8 MPO384642    63   1    5 days 0.38 M-v 3Eh MPCALB     2802          2016 NB1           20160710
K16N01C 25.4   0.15 K1972 324.70678  332.78856  106.69961    7.20815  0.1309372  1.09302817   0.9333585  6 MPO438025    83   1    5 days 0.41 M-v 3Eh MPCLINUX   2802          2016 NC1           20160709
K16N01D 25.3   0.15 K1972 203.82526   78.13031  286.19528    8.48090  0.0700319  0.91184139   1.0532299  2 MPO397877    34   1  188 days 0.41 M-v 3Eh MPCALB     2803          2016 ND1           20170109
K16N15G 20.6   0.15 K1972  41.10509  108.44784  267.99973   23.08561  0.6024102  0.39581422   1.8371380  3 MPO394310    91   2 2016-2016 0.31 M-v 3Eh MPCW       8803          2016 NG15          20161204
K16N15H 20.9   0.15 K1972 344.00058   38.09165  272.74000    4.77558  0.4204503  0.32323386   2.1027686  0 E2019-MB4   337   2 2016-2019 0.38 M-v 38h MPCLINUX   0804          2016 NH15          20190625
K16N15J 23.5   0.15 K1972   4.93970  138.55489  145.22960    1.86381  0.4335153  0.33329452   2.0602374  5 MPO392481    61   1   53 days 0.36 M-v 38h MPCALB     2804          2016 NJ15          20160827
K16N15K 22.2   0.15 K1972 265.70964    5.69873  271.56683    5.44980  0.5381882  0.24106092   2.5569261  4 MPO392481   106   1   60 days 0.33 M-v 38h MPCALB     2804          2016 NK15          20160903
K16N15L 20.4   0.15 K1972 324.71815   96.45013  300.64052    5.54362  0.5585060  0.33824537   2.0400844  0 E2019-M94   297   2 2016-2019 0.35 M-v 3Eh MPCLINUX   0803          2016 NL15          20190628
K16N15M 27.5   0.15 K1972  79.50838  154.01828  110.45150    1.89921  0.1715765  0.72056631   1.2322157  5 MPO384660    34   1    2 days 0.31 M-v 3Eh MPCADO     2804          2016 NM15          20160708
K16N15N 26.7   0.15 K1972 356.80131    8.88374  282.46277    6.90311  0.5091673  0.32842434   2.0805548  2 E2019-MA9    19   1    4 days 0.38 M-v 3Eh MPCLINUX   2804          2016 NN15          20160710
K16N15V 19.8   0.15 K1972  53.85796  148.19126  256.70279   20.42090  0.4435507  1.12017229   0.9182188  5 MPO405357    60   2 2016-2017 0.50 M-v 3Eh MPCLINUX   0802          2016 NV15          20170423
K16N15W 25.1   0.15 K1972  16.58487  190.14124  116.78290    6.61604  0.4723216  0.35273894   1.9838117  7 MPO384661    22   1   28 days 0.39 M-v 3Eh MPCW       2804          2016 NW15          20160802
K16N15X 22.1   0.15 K1972 345.45342   47.64776  274.50096   39.23868  0.1183027  0.67892580   1.2820979  6 MPO384661    22   1   25 days 0.49 M-v 38h MPCALB     2804          2016 NX15          20160726
K16N15Y 19.9   0.15 K1972 293.81144   10.17413  277.83494    3.70571  0.4795601  0.26716211   2.3875518  3 MPO397877   232   1  117 days 0.36 M-v 38h MPCW       2804          2016 NY15          20161031
K16N16O 19.5   0.15 K1972 257.18930  182.32163  151.41396   27.00293  0.5741767  0.25583378   2.4575222  3 MPO397877    49   1  241 days 0.35 M-v 3Eh MPCALB     A804          2016 NO16          20170101
K16N16P 19.4   0.15 K1972 232.00675  213.55829  121.55110    8.02031  0.5533035  0.23323337   2.6138195  3 MPO473445    58   1  235 days 0.32 M-v 38h MPCW       2804          2016 NP16          20161124
K16N16Q 23.1   0.15 K1972 334.70535  190.63413  113.50743    9.04318  0.4714413  0.31184544   2.1536566  4 MPO392481    41   1   84 days 0.32 M-v 38h MPCALB     2804          2016 NQ16          20160927
K16N16R 24.4   0.15 K1972  66.16728   38.90922  258.96850    2.71835  0.4366541  0.39404539   1.8426318  7 MPO384663    16   1   34 days 0.44 M-v 3Eh MPCADO     2804          2016 NR16          20160810
K16N16S 23.2   0.15 K1972 302.56925  191.19399  116.65759   15.64092  0.5368345  0.28439699   2.2900909  5 MPO392481    25   1   64 days 0.30 M-v 3Eh MPCALB     2804          2016 NS16          20160909
